satname,norad_id,inclination_deg,eccentricity,mean_motion_rev_per_day,perigee_km,apogee_km,l1,l2
STARLINK-1513,45786,53.0547,0.0001273,15.06381005,546.3881712067223,548.1513797717616,1 45786U 20038BJ  26022.47128749 -.00003562  00000+0 -22049-3 0  9994,2 45786  53.0547  44.1010 0001273  88.5082 271.6052 15.06381005309790
STARLINK-1522,46027,53.0551,0.0001453,15.06397991,546.2114612006462,548.2239692808962,1 46027U 20055A   26022.25289435  .00001648  00000+0  12952-3 0  9991,2 46027  53.0551 335.0806 0001453  88.4821 271.6335 15.06397991301886
STARLINK-1523,46028,53.0559,0.0001317,15.06400314,546.298527295332,548.1226638520066,1 46028U 20055B   26022.26765182  .00001341  00000+0  10891-3 0  9991,2 46028  53.0559 335.0143 0001317 102.6760 257.4376 15.06400314301903
STARLINK-1526,46029,53.0557,0.0001463,15.06386676,546.2392099118679,548.2655788486636,1 46029U 20055C   26022.26028833  .00003977  00000+0  28586-3 0  9994,2 46029  53.0557 335.0471 0001463  72.0192 288.0956 15.06386676301893
STARLINK-1555,46032,53.0556,0.0001403,15.06385004,546.2858860487358,548.2291517507383,1 46032U 20055F   26022.24555090  .00028490  00000+0  19246-2 0  9995,2 46032  53.0556 335.1141 0001403 109.2754 250.8387 15.06385004301891
STARLINK-1556,46033,53.0551,0.0001528,15.06379705,546.2155571244994,548.33196265272,1 46033U 20055G   26022.09442983  .00022241  00000+0  15081-2 0  9996,2 46033  53.0551 335.7930 0001528  63.1736 296.9410 15.06379705301849
STARLINK-1557,46034,53.0548,0.0001546,15.06374398,546.2193544741021,548.3606965103836,1 46034U 20055H   26022.03173411 -.00011147  00000+0 -73110-3 0  9991,2 46034  53.0548 336.0718 0001546  80.0766 280.0397 15.06374398301835
STARLINK-1558,46035,53.056,0.0001749,15.06401721,545.9950407859142,548.4175258664218,1 46035U 20055J   26022.23816879  .00017868  00000+0  12153-2 0  9999,2 46035  53.0560 335.1503 0001749  85.6400 274.4789 15.06401721301892
STARLINK-1560,46036,53.0561,0.0001647,15.06364354,546.1801870473791,548.4614328499756,1 46036U 20055K   26022.09074263 -.00002666  00000+0 -16029-3 0  9996,2 46036  53.0561 335.8115 0001647  87.3531 272.7646 15.06364354301872
STARLINK-1567,46038,53.0548,0.0001409,15.06385347,546.2806796973055,548.2322555764868,1 46038U 20055M   26022.30083806  .00011332  00000+0  77873-3 0  9997,2 46038  53.0548 334.8666 0001409 100.3349 259.7799 15.06385347301899
STARLINK-1569,46039,53.0551,0.0002233,15.06385928,545.7082469635861,548.8011268909686,1 46039U 20055N   26022.17551559  .00027554  00000+0  18622-2 0  9997,2 46039  53.0551 335.4292 0002233  92.8811 267.2433 15.06385928301873
STARLINK-1582,46043,53.055,0.0001291,15.06371254,546.4055878161107,548.1937355621594,1 46043U 20055S   26022.18287473 -.00003095  00000+0 -18915-3 0  9996,2 46043  53.0550 335.3958 0001291  50.3541 309.7561 15.06371254301878
STARLINK-1591,46045,53.0563,0.0001329,15.06433176,546.1895148321973,548.0302454529392,1 46045U 20055U   26022.27501703  .00010028  00000+0  69054-3 0  9995,2 46045  53.0563 334.9864 0001329  65.0699 295.0428 15.06433176301875
STARLINK-1524,46047,53.0543,0.0002021,15.06431018,545.7169001357825,548.5160875980037,1 46047U 20055W   26022.22802513  .00013343  00000+0  91217-3 0  9994,2 46047  53.0543 325.1927 0002021 102.4333 257.6882 15.06431018302027
STARLINK-1527,46048,53.0557,0.0001214,15.06394831,546.3866609859169,548.0681394622925,1 46048U 20055X   26022.22434556  .00007675  00000+0  53364-3 0  9995,2 46048  53.0557 325.2069 0001214  69.8484 290.2636 15.06394831302006
STARLINK-1540,46051,53.0555,0.000212,15.06393535,545.7631942080825,548.6995503979397,1 46051U 20055AA  26022.05847966  .00018244  00000+0  12407-2 0  9999,2 46051  53.0555 325.9548 0002120  93.8217 266.3015 15.06393535302011
STARLINK-1541,46052,53.0525,0.0001525,15.06386412,546.1970815082532,548.3093255203257,1 46052U 20055AB  26022.24278541  .00022872  00000+0  15499-2 0  9994,2 46052  53.0525 325.1258 0001525  97.1828 262.9335 15.06386412302004
STARLINK-1543,46053,53.0565,0.0001549,15.06352932,546.2830594979114,548.428577173032,1 46053U 20055AC  26022.24646716 -.00009898  00000+0 -64735-3 0  9991,2 46053  53.0565 325.1085 0001549 112.9116 247.2037 15.06352932302037
STARLINK-1548,46054,53.0556,0.0002377,15.06384881,545.6117295165513,548.9040622500543,1 46054U 20055AD  26022.25384604  .00020168  00000+0  13695-2 0  9997,2 46054  53.0556 325.0730 0002377 130.9504 229.1691 15.06384881302038
STARLINK-1554,46055,53.0571,0.0002028,15.06371246,545.8952076488004,548.7041647687265,1 46055U 20055AE  26022.23911034  .00035892  00000+0  24181-2 0  9991,2 46055  53.0571 325.1373 0002028  96.1537 263.9683 15.06371246302030
STARLINK-1564,46058,53.0567,0.0001088,15.06442558,546.3276631362687,547.8345906006753,1 46058U 20055AH  26022.25018654  .00009467  00000+0  65284-3 0  9991,2 46058  53.0567 325.5565 0001088  60.9171 299.1927 15.06442558302029
STARLINK-1570,46059,53.0545,0.0001235,15.06406613,546.3360120760399,548.0465681636997,1 46059U 20055AJ  26022.27962276  .00003353  00000+0  24385-3 0  9997,2 46059  53.0545 324.9606 0001235 108.2806 251.8317 15.06406613301995
STARLINK-1572,46060,53.0556,0.0001256,15.06386638,546.3826819239493,548.1223397690746,1 46060U 20055AK  26022.20960835  .00020828  00000+0  14135-2 0  9998,2 46060  53.0556 325.2754 0001256 107.1150 252.9977 15.06386638301998
STARLINK-1573,46061,53.0555,0.0001357,15.0639376,546.2909103110278,548.1704551001139,1 46061U 20055AL  26022.20592048  .00001996  00000+0  15289-3 0  9993,2 46061  53.0555 325.3304 0001357  93.2355 266.8789 15.06393760302028
STARLINK-1577,46063,53.056,9.37e-05,15.06399517,546.5641329655227,547.8619435626943,1 46063U 20055AN  26022.23169598  .00009961  00000+0  68666-3 0  9995,2 46063  53.0560 325.1765 0000937 101.7051 258.4043 15.06399517302022
STARLINK-1583,46064,53.0555,0.0001918,15.06376804,545.9543557605966,548.610946738816,1 46064U 20055AP  26022.26489693  .00004463  00000+0  31852-3 0  9999,2 46064  53.0555 325.0225 0001918 105.2159 254.9042 15.06376804302030
STARLINK-1525,46066,53.0545,0.0001605,15.06387329,546.1388683239575,548.3619176771108,1 46066U 20055AR  26022.19668184  .00000636  00000+0  61613-4 0  9994,2 46066  53.0545 305.3328 0001605  82.6785 277.4386 15.06387329302295
STARLINK-1536,46070,53.0526,0.0001678,15.06412428,546.0114010735497,548.3355352666686,1 46070U 20055AV  26022.50633117  .00023851  00000+0  16141-2 0  9990,2 46070  53.0526 303.9439 0001678  80.2250 279.8929 15.06412428302352
